{"type": "FeatureCollection", "features": [ {"type": "Feature", "properties": {"norad_id": 30134, "name": "FENGYUN 1C DEB", "group": "fengyun-1c-debris", "lat": -10.462237319436735, "lon": 21.140051121204554, "alt_km": 864.7446177544207, "timestamp": "2025-12-26T21:25:53.284428+00:00", "meta": {"OBJECT_NAME": "FENGYUN 1C DEB", "OBJECT_ID": "1999-025SP", "EPOCH": "2025-12-26T07:56:59.699328", "MEAN_MOTION": 14.13371042, "ECCENTRICITY": 0.00195335, "INCLINATION": 98.6927, "RA_OF_ASC_NODE": 18.9755, "ARG_OF_PERICENTER": 145.5172, "MEAN_ANOMALY": 227.5468, "EPHEMERIS_TYPE": 0, "CLASSIFICATION_TYPE": "U", "NORAD_CAT_ID": 30134, "ELEMENT_SET_NO": 999, "REV_AT_EPOCH": 97438, "BSTAR": 0.00045688427, "MEAN_MOTION_DOT": 8.17e-06, "MEAN_MOTION_DDOT": 0}, "tle": {"line1": "1 30134U 99025SP  25360.33124652  .00000817  00000+0  45688-3 0  9997", "line2": "2 30134  98.6927  18.9755 0019533 145.5172 227.5468 14.13371042974386"}}, "geometry": {"type": "Point", "coordinates": [21.140051121204554, -10.462237319436735]}}, {"type": "Feature", "properties": {"norad_id": 30136, "name": "FENGYUN 1C DEB", "group": "fengyun-1c-debris", "lat": 13.864159931310008, "lon": 74.87559184262616, "alt_km": 977.4514543655396, "timestamp": "2025-12-26T21:25:53.284439+00:00", "meta": {"OBJECT_NAME": "FENGYUN 1C DEB", "OBJECT_ID": "1999-025SR", "EPOCH": "2025-12-25T15:31:52.014720", "MEAN_MOTION": 13.95341425, "ECCENTRICITY": 0.0129376, "INCLINATION": 98.5564, "RA_OF_ASC_NODE": 251.5894, "ARG_OF_PERICENTER": 33.9061, "MEAN_ANOMALY": 356.1897, "EPHEMERIS_TYPE": 0, "CLASSIFICATION_TYPE": "U", "NORAD_CAT_ID": 30136, "ELEMENT_SET_NO": 999, "REV_AT_EPOCH": 96271, "BSTAR": 0.000575, "MEAN_MOTION_DOT": 7.96e-06, "MEAN_MOTION_DDOT": 0}, "tle": {"line1": "1 30136U 99025SR  25359.64712980  .00000796  00000+0  57500-3 0  9990", "line2": "2 30136  98.5564 251.5894 0129376  33.9061 356.1897 13.95341425962717"}}, "geometry": {"type": "Point", "coordinates": [74.87559184262616, 13.864159931310008]}}, {"type": "Feature", "properties": {"norad_id": 30138, "name": "FENGYUN 1C DEB", "group": "fengyun-1c-debris", "lat": 69.93699182535678, "lon": 29.042980994730762, "alt_km": 805.4052941800055, "timestamp": "2025-12-26T21:25:53.284449+00:00", "meta": {"OBJECT_NAME": "FENGYUN 1C DEB", "OBJECT_ID": "1999-025ST", "EPOCH": "2025-12-26T15:05:30.674400", "MEAN_MOTION": 14.20071888, "ECCENTRICITY": 0.00201999, "INCLINATION": 98.7581, "RA_OF_ASC_NODE": 53.7488, "ARG_OF_PERICENTER": 100.3494, "MEAN_ANOMALY": 62.0252, "EPHEMERIS_TYPE": 0, "CLASSIFICATION_TYPE": "U", "NORAD_CAT_ID": 30138, "ELEMENT_SET_NO": 999, "REV_AT_EPOCH": 97598, "BSTAR": 0.00076718261, "MEAN_MOTION_DOT": 1.594e-05, "MEAN_MOTION_DDOT": 0}, "tle": {"line1": "1 30138U 99025ST  25360.62882725  .00001594  00000+0  76718-3 0  9996", "line2": "2 30138  98.7581  53.7488 0020199 100.3494  62.0252 14.20071888975986"}}, "geometry": {"type": "Point", "coordinates": [29.042980994730762, 69.93699182535678]}}, {"type": "Feature", "properties": {"norad_id": 30139, "name": "FENGYUN 1C DEB", "group": "fengyun-1c-debris", "lat": 23.97394309276836, "lon": 27.113803159827274, "alt_km": 886.7583952810519, "timestamp": "2025-12-26T21:25:53.284459+00:00", "meta": {"OBJECT_NAME": "FENGYUN 1C DEB", "OBJECT_ID": "1999-025SU", "EPOCH": "2025-12-24T12:21:51.816384", "MEAN_MOTION": 14.03692729, "ECCENTRICITY": 0.013093, "INCLINATION": 98.3653, "RA_OF_ASC_NODE": 201.1732, "ARG_OF_PERICENTER": 256.9832, "MEAN_ANOMALY": 131.165, "EPHEMERIS_TYPE": 0, "CLASSIFICATION_TYPE": "U", "NORAD_CAT_ID": 30139, "ELEMENT_SET_NO": 999, "REV_AT_EPOCH": 96415, "BSTAR": 0.0010888122, "MEAN_MOTION_DOT": 1.807e-05, "MEAN_MOTION_DDOT": 0}, "tle": {"line1": "1 30139U 99025SU  25358.51518306  .00001807  00000+0  10888-2 0  9995", "line2": "2 30139  98.3653 201.1732 0130930 256.9832 131.1650 14.03692729964154"}}, "geometry": {"type": "Point", "coordinates": [27.113803159827274, 23.97394309276836]}}, {"type": "Feature", "properties": {"norad_id": 30140, "name": "FENGYUN 1C DEB", "group": "fengyun-1c-debris", "lat": -73.11127167333768, "lon": 94.5230196328705, "alt_km": 801.2744336292271, "timestamp": "2025-12-26T21:25:53.284469+00:00", "meta": {"OBJECT_NAME": "FENGYUN 1C DEB", "OBJECT_ID": "1999-025SV", "EPOCH": "2025-12-26T15:44:59.211168", "MEAN_MOTION": 14.20821786, "ECCENTRICITY": 0.00413348, "INCLINATION": 98.8256, "RA_OF_ASC_NODE": 63.5077, "ARG_OF_PERICENTER": 268.8119, "MEAN_ANOMALY": 245.3212, "EPHEMERIS_TYPE": 0, "CLASSIFICATION_TYPE": "U", "NORAD_CAT_ID": 30140, "ELEMENT_SET_NO": 999, "REV_AT_EPOCH": 97341, "BSTAR": 0.0013136182, "MEAN_MOTION_DOT": 2.818e-05, "MEAN_MOTION_DDOT": 0}, "tle": {"line1": "1 30140U 99025SV  25360.65624087  .00002818  00000+0  13136-2 0  9991", "line2": "2 30140  98.8256  63.5077 0041334 268.8119 245.3212 14.20821786973418"}}, "geometry": {"type": "Point", "coordinates": [94.5230196328705, -73.11127167333768]}}, {"type": "Feature", "properties": {"norad_id": 30141, "name": "FENGYUN 1C DEB", "group": "fengyun-1c-debris", "lat": 64.29238533814463, "lon": 122.93930554315025, "alt_km": 719.1686008387214, "timestamp": "2025-12-26T21:25:53.284480+00:00", "meta": {"OBJECT_NAME": "FENGYUN 1C DEB", "OBJECT_ID": "1999-025SW", "EPOCH": "2025-12-26T10:59:04.217280", "MEAN_MOTION": 14.51850793, "ECCENTRICITY": 0.00191995, "INCLINATION": 99.0147, "RA_OF_ASC_NODE": 283.219, "ARG_OF_PERICENTER": 359.6985, "MEAN_ANOMALY": 0.4193, "EPHEMERIS_TYPE": 0, "CLASSIFICATION_TYPE": "U", "NORAD_CAT_ID": 30141, "ELEMENT_SET_NO": 999, "REV_AT_EPOCH": 98443, "BSTAR": 0.0028512604, "MEAN_MOTION_DOT": 0.00011476, "MEAN_MOTION_DDOT": 0}, "tle": {"line1": "1 30141U 99025SW  25360.45768770  .00011476  00000+0  28513-2 0  9993", "line2": "2 30141  99.0147 283.2190 0019199 359.6985   0.4193 14.51850793984438"}}, "geometry": {"type": "Point", "coordinates": [122.93930554315025, 64.29238533814463]}}, {"type": "Feature", "properties": {"norad_id": 30142, "name": "FENGYUN 1C DEB", "group": "fengyun-1c-debris", "lat": 30.117295543921458, "lon": 71.53584304441773, "alt_km": 894.9972993268293, "timestamp": "2025-12-26T21:25:53.284490+00:00", "meta": {"OBJECT_NAME": "FENGYUN 1C DEB", "OBJECT_ID": "1999-025SX", "EPOCH": "2025-12-26T11:04:19.001856", "MEAN_MOTION": 14.10559873, "ECCENTRICITY": 0.01023518, "INCLINATION": 99.1274, "RA_OF_ASC_NODE": 76.4487, "ARG_OF_PERICENTER": 269.4161, "MEAN_ANOMALY": 89.528, "EPHEMERIS_TYPE": 0, "CLASSIFICATION_TYPE": "U", "NORAD_CAT_ID": 30142, "ELEMENT_SET_NO": 999, "REV_AT_EPOCH": 96492, "BSTAR": 0.001691676, "MEAN_MOTION_DOT": 3.12e-05, "MEAN_MOTION_DDOT": 0}, "tle": {"line1": "1 30142U 99025SX  25360.46133104  .00003120  00000+0  16917-2 0  9994", "line2": "2 30142  99.1274  76.4487 0102351 269.4161  89.5280 14.10559873964926"}}, "geometry": {"type": "Point", "coordinates": [71.53584304441773, 30.117295543921458]}}, {"type": "Feature", "properties": {"norad_id": 30143, "name": "FENGYUN 1C DEB", "group": "fengyun-1c-debris", "lat": -78.33618013305522, "lon": -128.25485331657634, "alt_km": 824.5962876008907, "timestamp": "2025-12-26T21:25:53.284519+00:00", "meta": {"OBJECT_NAME": "FENGYUN 1C DEB", "OBJECT_ID": "1999-025SY", "EPOCH": "2025-12-26T11:48:45.775008", "MEAN_MOTION": 14.0262966, "ECCENTRICITY": 0.01033902, "INCLINATION": 98.7346, "RA_OF_ASC_NODE": 183.2248, "ARG_OF_PERICENTER": 252.4839, "MEAN_ANOMALY": 162.1522, "EPHEMERIS_TYPE": 0, "CLASSIFICATION_TYPE": "U", "NORAD_CAT_ID": 30143, "ELEMENT_SET_NO": 999, "REV_AT_EPOCH": 96412, "BSTAR": 0.0010777496, "MEAN_MOTION_DOT": 1.7e-05, "MEAN_MOTION_DDOT": 0}, "tle": {"line1": "1 30143U 99025SY  25360.49219647  .00001700  00000+0  10777-2 0  9995", "line2": "2 30143  98.7346 183.2248 0103390 252.4839 162.1522 14.02629660964124"}}, "geometry": {"type": "Point", "coordinates": [-128.25485331657634, -78.33618013305522]}}, {"type": "Feature", "properties": {"norad_id": 30144, "name": "FENGYUN 1C DEB", "group": "fengyun-1c-debris", "lat": 42.50473978437888, "lon": -178.36616103879066, "alt_km": 956.8253403142271, "timestamp": "2025-12-26T21:25:53.284530+00:00", "meta": {"OBJECT_NAME": "FENGYUN 1C DEB", "OBJECT_ID": "1999-025SZ", "EPOCH": "2025-12-26T12:43:45.706368", "MEAN_MOTION": 13.91836824, "ECCENTRICITY": 0.01255786, "INCLINATION": 99.0107, "RA_OF_ASC_NODE": 352.9198, "ARG_OF_PERICENTER": 253.0093, "MEAN_ANOMALY": 229.2547, "EPHEMERIS_TYPE": 0, "CLASSIFICATION_TYPE": "U", "NORAD_CAT_ID": 30144, "ELEMENT_SET_NO": 999, "REV_AT_EPOCH": 96032, "BSTAR": 0.00044657069, "MEAN_MOTION_DOT": 5.62e-06, "MEAN_MOTION_DDOT": 0}, "tle": {"line1": "1 30144U 99025SZ  25360.53039012  .00000562  00000+0  44657-3 0  9997", "line2": "2 30144  99.0107 352.9198 0125578 253.0093 229.2547 13.91836824960323"}}, "geometry": {"type": "Point", "coordinates": [-178.36616103879066, 42.50473978437888]}}, {"type": "Feature", "properties": {"norad_id": 30145, "name": "FENGYUN 1C DEB", "group": "fengyun-1c-debris", "lat": -80.27086524272167, "lon": -141.26260753254152, "alt_km": 912.1739410045484, "timestamp": "2025-12-26T21:25:53.284541+00:00", "meta": {"OBJECT_NAME": "FENGYUN 1C DEB", "OBJECT_ID": "1999-025TA", "EPOCH": "2025-12-26T13:29:45.539232", "MEAN_MOTION": 14.14167267, "ECCENTRICITY": 0.00896944, "INCLINATION": 99.269, "RA_OF_ASC_NODE": 110.6552, "ARG_OF_PERICENTER": 110.584, "MEAN_ANOMALY": 273.6703, "EPHEMERIS_TYPE": 0, "CLASSIFICATION_TYPE": "U", "NORAD_CAT_ID": 30145, "ELEMENT_SET_NO": 999, "REV_AT_EPOCH": 96391, "BSTAR": 0.0025075243, "MEAN_MOTION_DOT": 4.923e-05, "MEAN_MOTION_DDOT": 0}, "tle": {"line1": "1 30145U 99025TA  25360.56233263  .00004923  00000+0  25075-2 0  9992", "line2": "2 30145  99.2690 110.6552 0089694 110.5840 273.6703 14.14167267963910"}}, "geometry": {"type": "Point", "coordinates": [-141.26260753254152, -80.27086524272167]}}]}